P/2012 F2 (PANSTARRS),e,14.7019,226.9874,33.3232,6.335262,0.0618098,0.54116498,213.3632,09/21.0/2022,2000,g 12.0,4.0
# From MPEC 2022-ED3
P/2012 G1 (PANSTARRS),e,12.1731,283.2767,266.1045,4.164873,0.1159582,0.32945535,83.5868,09/21.0/2022,2000,g 15.0,4.0
# From MPC 80898
P/2012 K3 (Gibbs),e,13.1907,125.8179,172.2400,3.628006,0.1426271,0.42270744,161.2924,09/21.0/2022,2000,g 15.0,4.0
# From MPC 88326
P/2012 NJ (La Sagra),e,84.5978,315.5791,338.3814,8.465464,0.0400155,0.84681461,150.0555,09/21.0/2022,2000,g 14.5,4.0
# From MPC 81470
P/2012 O1 (McNaught),e,7.4277,91.9398,238.3143,3.541542,0.1478821,0.59438061,191.9625,09/21.0/2022,2000,g 17.5,4.0
# From MPC 80899
P/2012 O2 (McNaught),e,24.4729,120.6844,183.4740,3.625865,0.1427534,0.53216053,176.1677,09/21.0/2022,2000,g 17.0,4.0
# From MPC 82320
P/2012 T2 (PANSTARRS),e,12.5661,73.7155,310.6943,5.729288,0.0718709,0.16221652,246.6463,09/21.0/2022,2000,g 10.0,4.0
# From MPC 80900
P/2012 T3 (PANSTARRS),e,9.5601,114.3777,195.5321,6.151109,0.0646062,0.61684724,244.8617,09/21.0/2022,2000,g 15.0,4.0
# From MPC 82720
P/2012 U2 (PANSTARRS),e,10.7595,185.3245,228.2473,7.133114,0.0517351,0.49973298,186.1317,09/21.0/2022,2000,g 12.5,4.0
# From MPC 84024
P/2012 US27 (Siding Spring),e,39.3663,49.2024,0.8175,5.165244,0.0839591,0.64818080,296.0822,09/21.0/2022,2000,g 13.5,4.0
# From MPC 82721
P/2012 WA34 (Lemmon-PANSTARRS),e,6.0804,93.5740,356.5036,4.685173,0.0971887,0.34431520,331.7902,09/21.0/2022,2000,g 13.5,4.0
# From MPC 82721
P/2013 AL76 (Catalina),e,144.8645,146.0053,27.0456,6.498771,0.0594918,0.68612171,212.9516,09/21.0/2022,2000,g 16.0,4.0
# From MPEC 2022-K19
P/2013 EW90,e,31.7919,160.2930,346.0983,4.113129,0.1181532,0.19465159,68.9646,09/21.0/2022,2000,g 14.3,4.0
# From MPC 91612
P/2013 G1 (Kowalski),e,5.4589,221.3219,51.5386,6.896186,0.0544240,0.51148806,174.5349,09/21.0/2022,2000,g 11.0,4.0
# From MPC 84025
P/2013 G4 (PANSTARRS),e,5.9161,339.6364,214.6361,4.439177,0.1053781,0.40928736,9.8712,09/21.0/2022,2000,g 15.0,4.0
# From MPC 91613
P/2013 J2 (McNaught),e,15.5147,289.3609,37.8514,6.222933,0.0634909,0.65746214,210.0161,09/21.0/2022,2000,g 13.0,4.0
# From MPC 86229
P/2013 N3 (PANSTARRS),e,2.1739,17.4675,323.9645,7.394390,0.0490174,0.59315059,153.7557,09/21.0/2022,2000,g 13.0,4.0
# From MPC 85834
P/2013 N5 (PANSTARRS),e,23.4610,187.1552,176.9354,6.797146,0.0556178,0.73251757,187.0336,09/21.0/2022,2000,g 17.0,4.0
# From MPC 85834
P/2013 P1 (PANSTARRS),e,18.7245,160.5933,138.2463,8.580529,0.0392133,0.60485598,136.9064,09/21.0/2022,2000,g 12.0,4.0
# From MPC 94671
P/2013 R3 (Catalina-PANSTARRS),e,0.8648,341.9775,11.2856,3.032327,0.1866552,0.27556906,258.0541,09/21.0/2022,2000,g 14.0,4.0
# From unp
P/2013 R3-A (Catalina-PANSTARRS),e,0.8642,341.9443,11.3247,3.032184,0.1866684,0.27553870,258.0951,09/21.0/2022,2000,g  9.0,4.0
# From MPEC 2015-M77
P/2013 R3-B (Catalina-PANSTARRS),e,0.8655,342.0003,11.2595,3.032404,0.1866481,0.27558399,258.0321,09/21.0/2022,2000,g  9.0,4.0
# From MPC 85835
P/2013 T1 (PANSTARRS),e,24.3030,10.0803,346.1568,5.857354,0.0695267,0.62429121,231.6477,09/21.0/2022,2000,g 16.5,4.0
# From MPC 86643
P/2013 T2 (Schwartz),e,9.4576,0.8003,345.5734,3.491610,0.1510655,0.50114088,154.8537,09/21.0/2022,2000,g 16.0,4.0
# From MPC 91613
P/2013 W1 (PANSTARRS),e,4.6962,117.8418,1.2365,3.487847,0.1513101,0.59281482,112.0888,09/21.0/2022,2000,g 17.5,4.0
# From MPC101095
P/2013 YG46 (Spacewatch),e,7.8575,48.8362,242.5959,3.273987,0.1663752,0.45465918,342.1513,09/21.0/2022,2000,g 10.0,4.0
# From MPC 89728
P/2014 A2 (Hill),e,24.5422,106.6314,356.1502,5.927391,0.0682981,0.64555859,223.1987,09/21.0/2022,2000,g 15.0,4.0
# From MPC 92981
P/2014 A3 (PANSTARRS),e,13.7153,229.9766,214.0792,4.609597,0.0995886,0.24677329,338.7853,09/21.0/2022,2000,g 12.0,4.0
# From MPC102095
P/2014 C1 (TOTAS),e,2.6930,167.8132,23.9001,3.033411,0.1865551,0.45069620,234.0248,09/21.0/2022,2000,g 15.5,4.0
# From MPEC 2022-P82
C/2014 F3 (Sheppard-Trujillo),e,6.5512,326.4812,4.3702,14.65834,0.0175621,0.61074244,8.4226,09/21.0/2022,2000,g  6.0,4.0
# From MPC 98560
P/2014 L2 (NEOWISE),e,5.1994,149.3469,182.7102,6.304896,0.0622569,0.64804112,185.7244,09/21.0/2022,2000,g 12.0,4.0
# From MPC 90769
P/2014 L3 (Hill),e,6.2697,115.4895,178.7022,8.176957,0.0421518,0.77291300,126.6317,09/21.0/2022,2000,g 16.0,4.0
# From MPC 91614
P/2014 M4 (PANSTARRS),e,3.3420,263.1959,148.0205,5.869188,0.0693166,0.59542190,195.7165,09/21.0/2022,2000,g 15.0,4.0
# From MPEC 2022-K19
P/2014 MG4 (Spacewatch-PANSTARRS),e,9.3677,311.7302,299.0551,5.013137,0.0878091,0.25899045,296.9894,09/21.0/2022,2000,g  9.5,4.0
# From MPC 98560
P/2014 O3 (PANSTARRS),e,7.7977,87.6420,204.7710,7.574901,0.0472758,0.38474062,145.4682,09/21.0/2022,2000,g 10.5,4.0
# From MPEC 2022-RD9
C/2014 OG392 (PANSTARRS),e,9.0329,145.7988,254.2875,12.25025,0.0229872,0.18614280,6.6574,09/21.0/2022,2000,g  6.0,4.0
# From MPC 91616
P/2014 U4 (PANSTARRS),e,6.4292,11.8844,347.8203,3.508357,0.1499852,0.46490543,87.6459,09/21.0/2022,2000,g 18.0,4.0
# From MPC 95211
P/2014 V1 (PANSTARRS),e,22.5269,166.2001,177.6438,5.479613,0.0768386,0.53448799,214.6805,09/21.0/2022,2000,g 14.0,4.0
# From MPC 93586
P/2014 W1 (PANSTARRS),e,8.8364,246.2360,152.1472,4.465712,0.1044403,0.38924399,312.5503,09/21.0/2022,2000,g 15.5,4.0
# From MPC105542
P/2014 W4 (PANSTARRS),e,15.2825,33.3850,67.6163,6.589814,0.0582632,0.35309483,143.1398,09/21.0/2022,2000,g 11.0,4.0
# From MPC 94281
P/2014 X1 (Elenin),e,26.0420,61.5554,33.8779,6.205524,0.0637583,0.70938691,179.8185,09/21.0/2022,2000,g 15.0,4.0
# From MPC 92275
P/2015 A3 (PANSTARRS),e,172.5392,277.2972,249.4247,7.814281,0.0451201,0.85044606,125.1140,09/21.0/2022,2000,g 20.0,4.0
# From MPC 99270
P/2015 B1 (PANSTARRS),e,18.0500,352.9319,188.8881,9.492239,0.0337016,0.36664522,86.5376,09/21.0/2022,2000,g  8.5,4.0
# From MPC109141
P/2015 B4 (Lemmon-PANSTARRS),e,1.7627,266.0534,227.2868,8.518808,0.0396402,0.56040252,110.5048,09/21.0/2022,2000,g 11.0,4.0
# From MPC101096
P/2015 C1 (TOTAS-Gibbs),e,13.9133,348.7954,178.1338,6.576069,0.0584460,0.56074165,158.2751,09/21.0/2022,2000,g 12.5,4.0
# From MPC109141
P/2015 D5 (Kowalski),e,20.5289,74.0692,39.6860,8.955817,0.0367745,0.48969569,113.8314,09/21.0/2022,2000,g  9.0,4.0
# From MPC 96866
P/2015 D6 (Lemmon-PANSTARRS),e,20.2046,45.8791,125.0354,7.137214,0.0516905,0.36128783,136.6233,09/21.0/2022,2000,g 10.5,4.0
# From MPEC 2021-P47
P/2015 HG16 (PANSTARRS),e,18.8229,57.6231,47.6526,4.771487,0.0945635,0.35225999,288.0890,09/21.0/2022,2000,g 12.5,4.0
# From MPC 95213
P/2015 K5 (PANSTARRS),e,39.9440,134.2043,106.3349,6.725878,0.0565042,0.55206681,150.7865,09/21.0/2022,2000,g 13.5,4.0
# From MPC107684
P/2015 M2 (PANSTARRS),e,3.9700,86.5847,225.9371,7.241426,0.0505787,0.18004813,129.7112,09/21.0/2022,2000,g  8.5,4.0
# From MPEC 2021-P47
C/2015 O1 (PANSTARRS),h,02/20.1862/2018,127.1866,299.8339,89.5544,1.001478,3.722184,2000,6.5,4.0
# From MPC 99819
P/2015 P4 (PANSTARRS),e,8.7175,104.6945,280.6469,6.046881,0.0662837,0.58565112,161.2607,09/21.0/2022,2000,g 14.0,4.0
# From MPEC 2022-K19
P/2015 PD229 (Cameron-ISON),e,2.0254,342.6520,352.6642,7.191365,0.0511078,0.32773967,132.4270,09/21.0/2022,2000,g 11.5,2.0
# From MPC 96867
P/2015 Q2 (Pimentel),e,146.5436,228.5197,244.6296,7.353174,0.0494301,0.75058549,127.0900,09/21.0/2022,2000,g 15.5,4.0
# From MPC 98562
P/2015 R1 (PANSTARRS),e,22.6958,48.3368,300.5630,5.880361,0.0691191,0.63434934,182.4224,09/21.0/2022,2000,g 14.0,4.0
# From MPC 95734
P/2015 R2 (PANSTARRS),e,15.4854,168.5969,149.8452,4.485843,0.1037380,0.45282538,275.3128,09/21.0/2022,2000,g 14.5,4.0
# From MPC 96280
P/2015 T3 (PANSTARRS),e,13.0937,120.5019,178.6330,4.326181,0.1095335,0.50818108,359.9227,12/21.0/2014,2000,g 14.0,4.0
# From MPC102953
P/2015 TO19 (Lemmon-PANSTARRS),e,6.5004,321.6334,89.1617,4.552530,0.1014670,0.35920889,242.3759,09/21.0/2022,2000,g 14.0,4.0
# From MPC110080
P/2015 TP200 (LINEAR),e,8.7806,7.0199,82.4510,7.265730,0.0503252,0.53600587,108.3836,09/21.0/2022,2000,g 11.0,4.0
# From MPC115881
C/2015 V1 (PANSTARRS),e,139.2304,197.1413,179.6871,2266,0.0000091,0.99811158,0.0000,12/16.4320/2017,2000,g  6.5,4.0
# From MPC101098
P/2015 W2 (Catalina),e,11.6092,294.1681,117.5331,7.291045,0.0500633,0.63511301,127.3762,09/21.0/2022,2000,g 13.0,4.0
# From MPEC 2022-OB6
C/2015 XY1 (Lemmon),h,04/25.7307/2018,148.8516,281.5810,196.1428,1.000040,7.924134,2000,5.5,4.0
# From MPEC 2022-OB6
P/2015 X3 (PANSTARRS),e,24.3998,77.2757,306.7379,5.003994,0.0880499,0.43994424,228.6576,09/21.0/2022,2000,g 15.0,4.0
# From MPC119995
C/2015 X5 (PANSTARRS),e,124.3166,122.3141,27.5506,13586,0.0000006,0.99949991,0.0000,12/27.3470/2017,2000,g  7.5,4.0
# From MPC115881
P/2015 X6 (PANSTARRS),e,4.5647,106.9349,329.7853,2.752624,0.2158160,0.17304039,151.9167,09/21.0/2022,2000,g 16.0,4.0
# From MPEC 2022-O08
C/2016 A1 (PANSTARRS),e,121.2129,128.1760,10.1014,9479,0.0000011,0.99943909,0.0000,11/20.9177/2017,2000,g  6.0,4.0
# From MPC100282
P/2016 A2 (Christensen),e,26.4034,291.6177,141.2943,4.753523,0.0951000,0.27079007,252.6870,09/21.0/2022,2000,g 11.5,4.0
# From MPEC 2022-OB6
P/2016 A3 (PANSTARRS),e,8.5106,187.2284,340.9422,7.881491,0.0445442,0.38605349,87.9171,09/21.0/2022,2000,g 10.0,4.0
# From MPC102098
P/2016 A7 (PANSTARRS),e,16.6030,221.4972,352.5463,5.034817,0.0872426,0.56440370,209.8091,09/21.0/2022,2000,g 16.0,4.0
# From MPC109143
P/2016 BA14 (PANSTARRS),e,18.8968,180.5136,351.9569,3.026349,0.1872085,0.66474815,86.2676,09/21.0/2022,2000,g 21.0,4.0
# From MPEC 2021-P47
P/2016 G1 (PANSTARRS),e,10.9711,204.0199,111.1353,2.582555,0.2374814,0.21082918,130.1814,09/21.0/2022,2000,g 14.0,4.0
# From MPEC 2017-D91
P/2016 J1-A (PANSTARRS),e,14.3289,199.8112,47.0204,3.172010,0.1744625,0.22767087,37.0191,09/21.0/2022,2000,g 16.5,4.0
# From MPEC 2017-A77
P/2016 J1-B (PANSTARRS),e,14.3316,199.8161,46.9116,3.171644,0.1744928,0.22752187,37.1634,09/21.0/2022,2000,g 17.0,4.0
# From MPEC 2022-ED3
C/2016 M1 (PANSTARRS),e,90.8958,92.2525,209.9373,227661,0.0000000,0.99999027,0.0000,08/10.5524/2018,2000,g  5.0,4.0
# From MPEC 2022-OB6
